IRIDIUM 63              
1 25286U 98021B   26018.46960236  .00000354  00000+0  11322-3 0  9999
2 25286  86.4002 351.7997 0002001  84.0141 276.1284 14.36769991454757
IRIDIUM 69              
1 25319U 98026A   26018.51234854  .00000303  00000+0  87673-4 0  9994
2 25319  86.3983   4.3882 0004091  58.9952 301.1650 14.41251506454071
IRIDIUM 71              
1 25320U 98026B   26018.63553020  .00000266  00000+0  76173-4 0  9999
2 25320  86.3988 359.0070 0004296  92.4172 267.7519 14.41344066454627
IRIDIUM 73              
1 25344U 98032C   26018.57887703  .00000556  00000+0  13235-3 0  9994
2 25344  86.4438 315.3366 0002248  67.9706 292.1738 14.52047312461812
IRIDIUM 82              
1 25467U 98051A   26018.42185241  .00045086  00000+0  74600-3 0  9993
2 25467  86.3598   2.5847 0056831 185.7057 174.3563 15.50141896457079
